{"type": "FeatureCollection", "features": [ {"type": "Feature", "properties": {"norad_id": 61182, "name": "GSAT0232 (GALILEO 32)", "group": "gnss", "lat": -11.004604317986136, "lon": -141.61825653344778, "alt_km": 23228.323207964262, "timestamp": "2025-12-23T20:42:37.318737+00:00", "meta": {"OBJECT_NAME": "GSAT0232 (GALILEO 32)", "OBJECT_ID": "2024-167A", "EPOCH": "2025-12-22T11:14:58.318656", "MEAN_MOTION": 1.70473576, "ECCENTRICITY": 0.00018839, "INCLINATION": 55.2381, "RA_OF_ASC_NODE": 226.1639, "ARG_OF_PERICENTER": 204.0949, "MEAN_ANOMALY": 6.8996, "EPHEMERIS_TYPE": 0, "CLASSIFICATION_TYPE": "U", "NORAD_CAT_ID": 61182, "ELEMENT_SET_NO": 999, "REV_AT_EPOCH": 786, "BSTAR": 0, "MEAN_MOTION_DOT": 7.4e-07, "MEAN_MOTION_DDOT": 0}, "tle": {"line1": "1 61182U 24167A   25356.46873054  .00000074  00000+0  00000+0 0  9995", "line2": "2 61182  55.2381 226.1639 0001883 204.0949   6.8996  1.70473576  7860"}}, "geometry": {"type": "Point", "coordinates": [-141.61825653344778, -11.004604317986136]}}, {"type": "Feature", "properties": {"norad_id": 61183, "name": "GSAT0226 (GALILEO 31)", "group": "gnss", "lat": 54.16990479585664, "lon": -27.940073685025705, "alt_km": 23212.4938873712, "timestamp": "2025-12-23T20:42:37.318750+00:00", "meta": {"OBJECT_NAME": "GSAT0226 (GALILEO 31)", "OBJECT_ID": "2024-167B", "EPOCH": "2025-12-22T05:43:25.937760", "MEAN_MOTION": 1.70473707, "ECCENTRICITY": 0.00011776, "INCLINATION": 55.2367, "RA_OF_ASC_NODE": 226.1757, "ARG_OF_PERICENTER": 107.8451, "MEAN_ANOMALY": 74.5096, "EPHEMERIS_TYPE": 0, "CLASSIFICATION_TYPE": "U", "NORAD_CAT_ID": 61183, "ELEMENT_SET_NO": 999, "REV_AT_EPOCH": 783, "BSTAR": 0, "MEAN_MOTION_DOT": 7.4e-07, "MEAN_MOTION_DDOT": 0}, "tle": {"line1": "1 61183U 24167B   25356.23849465  .00000074  00000+0  00000+0 0  9990", "line2": "2 61183  55.2367 226.1757 0001177 107.8451  74.5096  1.70473707  7836"}}, "geometry": {"type": "Point", "coordinates": [-27.940073685025705, 54.16990479585664]}}, {"type": "Feature", "properties": {"norad_id": 61186, "name": "BEIDOU-3 M25 (C47)", "group": "gnss", "lat": -6.206872528638555, "lon": -56.109372821114846, "alt_km": 21519.940314314958, "timestamp": "2025-12-23T20:42:37.318765+00:00", "meta": {"OBJECT_NAME": "BEIDOU-3 M25 (C47)", "OBJECT_ID": "2024-168B", "EPOCH": "2025-12-22T12:27:11.391840", "MEAN_MOTION": 1.86230177, "ECCENTRICITY": 0.0005446, "INCLINATION": 54.6334, "RA_OF_ASC_NODE": 308.3821, "ARG_OF_PERICENTER": 299.7491, "MEAN_ANOMALY": 231.473, "EPHEMERIS_TYPE": 0, "CLASSIFICATION_TYPE": "U", "NORAD_CAT_ID": 61186, "ELEMENT_SET_NO": 999, "REV_AT_EPOCH": 849, "BSTAR": 0, "MEAN_MOTION_DOT": -5.7e-07, "MEAN_MOTION_DDOT": 0}, "tle": {"line1": "1 61186U 24168B   25356.51888185 -.00000057  00000+0  00000+0 0  9999", "line2": "2 61186  54.6334 308.3821 0005446 299.7491 231.4730  1.86230177  8490"}}, "geometry": {"type": "Point", "coordinates": [-56.109372821114846, -6.206872528638555]}}, {"type": "Feature", "properties": {"norad_id": 61187, "name": "BEIDOU-3 M27 (C49)", "group": "gnss", "lat": 40.4218335073743, "lon": 91.11334052776225, "alt_km": 21529.17067170614, "timestamp": "2025-12-23T20:42:37.318777+00:00", "meta": {"OBJECT_NAME": "BEIDOU-3 M27 (C49)", "OBJECT_ID": "2024-168C", "EPOCH": "2025-12-22T20:59:38.843232", "MEAN_MOTION": 1.8623031, "ECCENTRICITY": 0.0002551, "INCLINATION": 54.6286, "RA_OF_ASC_NODE": 308.3534, "ARG_OF_PERICENTER": 340.6202, "MEAN_ANOMALY": 204.1443, "EPHEMERIS_TYPE": 0, "CLASSIFICATION_TYPE": "U", "NORAD_CAT_ID": 61187, "ELEMENT_SET_NO": 999, "REV_AT_EPOCH": 597, "BSTAR": 0, "MEAN_MOTION_DOT": -5.6e-07, "MEAN_MOTION_DDOT": 0}, "tle": {"line1": "1 61187U 24168C   25356.87475513 -.00000056  00000+0  00000+0 0  9995", "line2": "2 61187  54.6286 308.3534 0002551 340.6202 204.1443  1.86230310  5975"}}, "geometry": {"type": "Point", "coordinates": [91.11334052776225, 40.4218335073743]}}, {"type": "Feature", "properties": {"norad_id": 62339, "name": "GPS BIII-7  (PRN 01)", "group": "gnss", "lat": 10.064322652767984, "lon": -11.559375230380063, "alt_km": 20150.270595611688, "timestamp": "2025-12-23T20:42:37.318788+00:00", "meta": {"OBJECT_NAME": "GPS BIII-7  (PRN 01)", "OBJECT_ID": "2024-242A", "EPOCH": "2025-12-22T12:02:33.556992", "MEAN_MOTION": 2.00568132, "ECCENTRICITY": 0.00128077, "INCLINATION": 54.9208, "RA_OF_ASC_NODE": 341.3454, "ARG_OF_PERICENTER": 346.2078, "MEAN_ANOMALY": 123.2241, "EPHEMERIS_TYPE": 0, "CLASSIFICATION_TYPE": "U", "NORAD_CAT_ID": 62339, "ELEMENT_SET_NO": 999, "REV_AT_EPOCH": 771, "BSTAR": 0, "MEAN_MOTION_DOT": -6.9e-07, "MEAN_MOTION_DDOT": 0}, "tle": {"line1": "1 62339U 24242A   25356.50177728 -.00000069  00000+0  00000+0 0  9999", "line2": "2 62339  54.9208 341.3454 0012807 346.2078 123.2241  2.00568132  7712"}}, "geometry": {"type": "Point", "coordinates": [-11.559375230380063, 10.064322652767984]}}, {"type": "Feature", "properties": {"norad_id": 62850, "name": "NVS-02 (IRNSS-1K)", "group": "gnss", "lat": -14.092241164380921, "lon": -175.4297698693633, "alt_km": 35662.56515678716, "timestamp": "2025-12-23T20:42:37.318800+00:00", "meta": {"OBJECT_NAME": "NVS-02 (IRNSS-1K)", "OBJECT_ID": "2025-020A", "EPOCH": "2025-12-22T04:45:05.885856", "MEAN_MOTION": 2.17601308, "ECCENTRICITY": 0.73473359, "INCLINATION": 20.961, "RA_OF_ASC_NODE": 324.2351, "ARG_OF_PERICENTER": 32.365, "MEAN_ANOMALY": 356.4574, "EPHEMERIS_TYPE": 0, "CLASSIFICATION_TYPE": "U", "NORAD_CAT_ID": 62850, "ELEMENT_SET_NO": 999, "REV_AT_EPOCH": 712, "BSTAR": 0.00023462008, "MEAN_MOTION_DOT": 1.43e-06, "MEAN_MOTION_DDOT": 0}, "tle": {"line1": "1 62850U 25020A   25356.19798479  .00000143  00000+0  23462-3 0  9992", "line2": "2 62850  20.9610 324.2351 7347335  32.3650 356.4574  2.17601308  7124"}}, "geometry": {"type": "Point", "coordinates": [-175.4297698693633, -14.092241164380921]}}, {"type": "Feature", "properties": {"norad_id": 62876, "name": "QZS-6 (QZSS/PRN 200)", "group": "gnss", "lat": 0.06562557086811162, "lon": 133.83030309536326, "alt_km": 35791.78898494901, "timestamp": "2025-12-23T20:42:37.318812+00:00", "meta": {"OBJECT_NAME": "QZS-6 (QZSS/PRN 200)", "OBJECT_ID": "2025-023A", "EPOCH": "2025-12-23T03:17:27.950784", "MEAN_MOTION": 1.00271364, "ECCENTRICITY": 0.00015641, "INCLINATION": 0.0547, "RA_OF_ASC_NODE": 72.1314, "ARG_OF_PERICENTER": 208.4164, "MEAN_ANOMALY": 311.2957, "EPHEMERIS_TYPE": 0, "CLASSIFICATION_TYPE": "U", "NORAD_CAT_ID": 62876, "ELEMENT_SET_NO": 999, "REV_AT_EPOCH": 319, "BSTAR": 0, "MEAN_MOTION_DOT": -2.12e-06, "MEAN_MOTION_DDOT": 0}, "tle": {"line1": "1 62876U 25023A   25357.13712906 -.00000212  00000+0  00000+0 0  9996", "line2": "2 62876   0.0547  72.1314 0001564 208.4164 311.2957  1.00271364  3191"}}, "geometry": {"type": "Point", "coordinates": [133.83030309536326, 0.06562557086811162]}}, {"type": "Feature", "properties": {"norad_id": 63130, "name": "COSMOS 2584 (704K)", "group": "gnss", "lat": 6.782833878938229, "lon": -104.39820777363424, "alt_km": 19116.146974294606, "timestamp": "2025-12-23T20:42:37.318824+00:00", "meta": {"OBJECT_NAME": "COSMOS 2584 (704K)", "OBJECT_ID": "2025-042A", "EPOCH": "2025-12-22T16:47:13.376832", "MEAN_MOTION": 2.13103045, "ECCENTRICITY": 0.00077582, "INCLINATION": 64.9812, "RA_OF_ASC_NODE": 78.8068, "ARG_OF_PERICENTER": 220.2667, "MEAN_ANOMALY": 139.7207, "EPHEMERIS_TYPE": 0, "CLASSIFICATION_TYPE": "U", "NORAD_CAT_ID": 63130, "ELEMENT_SET_NO": 999, "REV_AT_EPOCH": 628, "BSTAR": 0, "MEAN_MOTION_DOT": -2e-08, "MEAN_MOTION_DDOT": 0}, "tle": {"line1": "1 63130U 25042A   25356.69946038 -.00000002  00000+0  00000+0 0  9993", "line2": "2 63130  64.9812  78.8068 0007758 220.2667 139.7207  2.13103045  6288"}}, "geometry": {"type": "Point", "coordinates": [-104.39820777363424, 6.782833878938229]}}, {"type": "Feature", "properties": {"norad_id": 64202, "name": "GPS BIII-8  (PRN 21)", "group": "gnss", "lat": -17.323997160582866, "lon": -129.2261867551022, "alt_km": 20190.243900774898, "timestamp": "2025-12-23T20:42:37.318838+00:00", "meta": {"OBJECT_NAME": "GPS BIII-8  (PRN 21)", "OBJECT_ID": "2025-116A", "EPOCH": "2025-12-22T08:06:38.435904", "MEAN_MOTION": 2.0055774, "ECCENTRICITY": 0.00058811, "INCLINATION": 55.1123, "RA_OF_ASC_NODE": 38.2538, "ARG_OF_PERICENTER": 310.2998, "MEAN_ANOMALY": 229.9806, "EPHEMERIS_TYPE": 0, "CLASSIFICATION_TYPE": "U", "NORAD_CAT_ID": 64202, "ELEMENT_SET_NO": 999, "REV_AT_EPOCH": 432, "BSTAR": 0, "MEAN_MOTION_DOT": -5.2e-07, "MEAN_MOTION_DDOT": 0}, "tle": {"line1": "1 64202U 25116A   25356.33794486 -.00000052  00000+0  00000+0 0  9990", "line2": "2 64202  55.1123  38.2538 0005881 310.2998 229.9806  2.00557740  4321"}}, "geometry": {"type": "Point", "coordinates": [-129.2261867551022, -17.323997160582866]}}, {"type": "Feature", "properties": {"norad_id": 65590, "name": "COSMOS 2596 (708K)", "group": "gnss", "lat": -57.65154064992463, "lon": -87.08833896894403, "alt_km": 19101.73642247291, "timestamp": "2025-12-23T20:42:37.318850+00:00", "meta": {"OBJECT_NAME": "COSMOS 2596 (708K)", "OBJECT_ID": "2025-206B", "EPOCH": "2025-12-23T03:22:08.901120", "MEAN_MOTION": 2.13100363, "ECCENTRICITY": 0.00140926, "INCLINATION": 64.7387, "RA_OF_ASC_NODE": 321.1139, "ARG_OF_PERICENTER": 307.3847, "MEAN_ANOMALY": 149.2418, "EPHEMERIS_TYPE": 0, "CLASSIFICATION_TYPE": "U", "NORAD_CAT_ID": 65590, "ELEMENT_SET_NO": 999, "REV_AT_EPOCH": 216, "BSTAR": 0, "MEAN_MOTION_DOT": -3.8e-07, "MEAN_MOTION_DDOT": 0}, "tle": {"line1": "1 65590U 25206B   25357.14038080 -.00000038  00000+0  00000+0 0  9996", "line2": "2 65590  64.7387 321.1139 0014092 307.3847 149.2418  2.13100363  2167"}}, "geometry": {"type": "Point", "coordinates": [-87.08833896894403, -57.65154064992463]}}]}